;Initialise machine
G21 ; set units to mm 
G90 ; absolute positioning
;Pick up brick
ROTATE_HOME
G1 Z18.2
G1 X316 Y33 Z18.2
OPEN_JAW
G1 X316 Y33 Z-1
G4 P1500
G1 X316 Y33 Z-2
CLOSE_JAW
G1 X316 Y33 Z18.2

;Place brick
G1 Z14.7
G1 X269 Y32 Z14.7
G1 X269 Y32 Z-4.5 F100
G4 P2000
G1 X269 Y32 Z-1.5
G4 P800
OPEN_JAW

G1 X269 Y32 Z14.7 F1500
G1 X316 Y25

;Pick up brick
ROTATE_HOME
G1 Z18.2
G1 X316 Y33 Z18.2
OPEN_JAW
G1 X316 Y33 Z-1
G4 P1500
G1 X316 Y33 Z-2
CLOSE_JAW
G1 X316 Y33 Z18.2

;Place brick
G1 Z24.299999999999997
G1 X269 Y32 Z24.299999999999997
G1 X269 Y32 Z5.1 F100
G4 P2000
G1 X269 Y32 Z8.1
G4 P800
OPEN_JAW

G1 X269 Y32 Z24.299999999999997 F1500
G1 X316 Y25

